[{"OBJECT_NAME":"ION SCV-011","OBJECT_ID":"2023-084AB","EPOCH":"2026-03-09T22:35:16.566144","MEAN_MOTION":15.27752464,"ECCENTRICITY":0.00079323,"INCLINATION":98.1356,"RA_OF_ASC_NODE":247.1056,"ARG_OF_PERICENTER":30.3898,"MEAN_ANOMALY":329.7798,"EPHEMERIS_TYPE":0,"CLASSIFICATION_TYPE":"U","NORAD_CAT_ID":56957,"ELEMENT_SET_NO":999,"REV_AT_EPOCH":15065,"BSTAR":0.0002590454,"MEAN_MOTION_DOT":6.943e-5,"MEAN_MOTION_DDOT":0},{"OBJECT_NAME":"ARIANE 5 DEB [SYLDA]","OBJECT_ID":"2019-049D","EPOCH":"2026-03-09T22:41:12.122016","MEAN_MOTION":10.58188598,"ECCENTRICITY":0.24715073,"INCLINATION":4.3159,"RA_OF_ASC_NODE":108.9217,"ARG_OF_PERICENTER":91.8276,"MEAN_ANOMALY":296.3621,"EPHEMERIS_TYPE":0,"CLASSIFICATION_TYPE":"U","NORAD_CAT_ID":44478,"ELEMENT_SET_NO":999,"REV_AT_EPOCH":11504,"BSTAR":0.0057028982,"MEAN_MOTION_DOT":0.00546241,"MEAN_MOTION_DDOT":1.5285355e-5}]
